{
  "type": "FeatureCollection",
  "features": [
    {
      "type": "Feature",
      "properties": {
        "norad_id": 35462,
        "name": "COSMOS 2251 DEB",
        "group": "cosmos-2251-debris",
        "lat": 0.09200601491437069,
        "lon": 107.341055104133,
        "alt_km": 848.0920066944009,
        "timestamp": "2025-12-02T10:50:47.671989+00:00",
        "meta_object_name": "COSMOS 2251 DEB",
        "meta_object_id": "1993-036ALG",
        "meta_epoch": "2025-12-01T03:45:45.448128",
        "meta_mean_motion": 14.29124029,
        "meta_eccentricity": 0.00870444,
        "meta_inclination": 74.036,
        "meta_ra_of_asc_node": 289.718,
        "meta_arg_of_pericenter": 327.319,
        "meta_mean_anomaly": 32.2589,
        "meta_ephemeris_type": 0,
        "meta_classification_type": "U",
        "meta_norad_cat_id": 35462,
        "meta_element_set_no": 999,
        "meta_rev_at_epoch": 66215,
        "meta_bstar": 0.0017949723,
        "meta_mean_motion_dot": 4.718e-05,
        "meta_mean_motion_ddot": 0,
        "tle_line1": "1 35462U 93036ALG 25335.15677602  .00004718  00000+0  17950-2 0  9996",
        "tle_line2": "2 35462  74.0360 289.7180 0087044 327.3190  32.2589 14.29124029662158"
      },
      "geometry": {
        "type": "Point",
        "coordinates": [
          107.341055104133,
          0.09200601491437069
        ]
      }
    },
    {
      "type": "Feature",
      "properties": {
        "norad_id": 35465,
        "name": "COSMOS 2251 DEB",
        "group": "cosmos-2251-debris",
        "lat": 39.83520484092139,
        "lon": -129.93752452265392,
        "alt_km": 699.3698661372337,
        "timestamp": "2025-12-02T10:50:47.671999+00:00",
        "meta_object_name": "COSMOS 2251 DEB",
        "meta_object_id": "1993-036ALK",
        "meta_epoch": "2025-11-29T22:48:34.232544",
        "meta_mean_motion": 14.44263019,
        "meta_eccentricity": 0.00634289,
        "meta_inclination": 73.9997,
        "meta_ra_of_asc_node": 220.8763,
        "meta_arg_of_pericenter": 24.0529,
        "meta_mean_anomaly": 336.3567,
        "meta_ephemeris_type": 0,
        "meta_classification_type": "U",
        "meta_norad_cat_id": 35465,
        "meta_element_set_no": 999,
        "meta_rev_at_epoch": 87057,
        "meta_bstar": 0.00049692277,
        "meta_mean_motion_dot": 1.723e-05,
        "meta_mean_motion_ddot": 0,
        "tle_line1": "1 35465U 93036ALK 25333.95039621  .00001723  00000+0  49692-3 0  9990",
        "tle_line2": "2 35465  73.9997 220.8763 0063428  24.0529 336.3567 14.44263019870576"
      },
      "geometry": {
        "type": "Point",
        "coordinates": [
          -129.93752452265392,
          39.83520484092139
        ]
      }
    },
    {
      "type": "Feature",
      "properties": {
        "norad_id": 35469,
        "name": "COSMOS 2251 DEB",
        "group": "cosmos-2251-debris",
        "lat": 32.02985018043214,
        "lon": 53.53675250146189,
        "alt_km": 777.801338795648,
        "timestamp": "2025-12-02T10:50:47.672009+00:00",
        "meta_object_name": "COSMOS 2251 DEB",
        "meta_object_id": "1993-036ALP",
        "meta_epoch": "2025-12-01T11:30:18.514944",
        "meta_mean_motion": 14.49801168,
        "meta_eccentricity": 0.00774879,
        "meta_inclination": 74.0179,
        "meta_ra_of_asc_node": 45.0354,
        "meta_arg_of_pericenter": 203.0672,
        "meta_mean_anomaly": 156.7004,
        "meta_ephemeris_type": 0,
        "meta_classification_type": "U",
        "meta_norad_cat_id": 35469,
        "meta_element_set_no": 999,
        "meta_rev_at_epoch": 87948,
        "meta_bstar": 0.0001544866,
        "meta_mean_motion_dot": 5.89e-06,
        "meta_mean_motion_ddot": 0,
        "tle_line1": "1 35469U 93036ALP 25335.47938096  .00000589  00000+0  15449-3 0  9999",
        "tle_line2": "2 35469  74.0179  45.0354 0077487 203.0672 156.7004 14.49801168879482"
      },
      "geometry": {
        "type": "Point",
        "coordinates": [
          53.53675250146189,
          32.02985018043214
        ]
      }
    },
    {
      "type": "Feature",
      "properties": {
        "norad_id": 35475,
        "name": "COSMOS 2251 DEB",
        "group": "cosmos-2251-debris",
        "lat": -52.98740751067424,
        "lon": 27.909539288116463,
        "alt_km": 655.8216538192046,
        "timestamp": "2025-12-02T10:50:47.672020+00:00",
        "meta_object_name": "COSMOS 2251 DEB",
        "meta_object_id": "1993-036ALV",
        "meta_epoch": "2025-12-01T20:42:06.595776",
        "meta_mean_motion": 14.69376541,
        "meta_eccentricity": 0.0021347,
        "meta_inclination": 74.0221,
        "meta_ra_of_asc_node": 186.7148,
        "meta_arg_of_pericenter": 260.4163,
        "meta_mean_anomaly": 99.4595,
        "meta_ephemeris_type": 0,
        "meta_classification_type": "U",
        "meta_norad_cat_id": 35475,
        "meta_element_set_no": 999,
        "meta_rev_at_epoch": 65457,
        "meta_bstar": 0.0015058,
        "meta_mean_motion_dot": 8.914e-05,
        "meta_mean_motion_ddot": 0,
        "tle_line1": "1 35475U 93036ALV 25335.86257634  .00008914  00000+0  15058-2 0  9996",
        "tle_line2": "2 35475  74.0221 186.7148 0021347 260.4163  99.4595 14.69376541654570"
      },
      "geometry": {
        "type": "Point",
        "coordinates": [
          27.909539288116463,
          -52.98740751067424
        ]
      }
    },
    {
      "type": "Feature",
      "properties": {
        "norad_id": 35476,
        "name": "COSMOS 2251 DEB",
        "group": "cosmos-2251-debris",
        "lat": -40.877558684180634,
        "lon": -84.49066911046033,
        "alt_km": 661.3074858910086,
        "timestamp": "2025-12-02T10:50:47.672030+00:00",
        "meta_object_name": "COSMOS 2251 DEB",
        "meta_object_id": "1993-036ALW",
        "meta_epoch": "2025-12-01T18:07:58.546272",
        "meta_mean_motion": 14.75256921,
        "meta_eccentricity": 0.0017244,
        "meta_inclination": 73.9778,
        "meta_ra_of_asc_node": 82.4733,
        "meta_arg_of_pericenter": 71.028,
        "meta_mean_anomaly": 54.6813,
        "meta_ephemeris_type": 0,
        "meta_classification_type": "U",
        "meta_norad_cat_id": 35476,
        "meta_element_set_no": 999,
        "meta_rev_at_epoch": 87725,
        "meta_bstar": 0.001969,
        "meta_mean_motion_dot": 0.00013352,
        "meta_mean_motion_ddot": 0,
        "tle_line1": "1 35476U 93036ALW 25335.75553873  .00013352  00000+0  19690-2 0  9997",
        "tle_line2": "2 35476  73.9778  82.4733 0017244  71.0280  54.6813 14.75256921877259"
      },
      "geometry": {
        "type": "Point",
        "coordinates": [
          -84.49066911046033,
          -40.877558684180634
        ]
      }
    },
    {
      "type": "Feature",
      "properties": {
        "norad_id": 35580,
        "name": "COSMOS 2251 DEB",
        "group": "cosmos-2251-debris",
        "lat": 65.07717893042191,
        "lon": -22.192538603201594,
        "alt_km": 953.7910940703814,
        "timestamp": "2025-12-02T10:50:47.672040+00:00",
        "meta_object_name": "COSMOS 2251 DEB",
        "meta_object_id": "1993-036ALX",
        "meta_epoch": "2025-11-11T02:25:47.460864",
        "meta_mean_motion": 13.83664367,
        "meta_eccentricity": 0.0284653,
        "meta_inclination": 73.9022,
        "meta_ra_of_asc_node": 232.5156,
        "meta_arg_of_pericenter": 243.9426,
        "meta_mean_anomaly": 113.2144,
        "meta_ephemeris_type": 0,
        "meta_classification_type": "U",
        "meta_norad_cat_id": 35580,
        "meta_element_set_no": 999,
        "meta_rev_at_epoch": 61819,
        "meta_bstar": 0.0015271116,
        "meta_mean_motion_dot": 2.282e-05,
        "meta_mean_motion_ddot": 0,
        "tle_line1": "1 35580U 93036ALX 25315.10124376  .00002282  00000+0  15271-2 0  9993",
        "tle_line2": "2 35580  73.9022 232.5156 0284653 243.9426 113.2144 13.83664367618196"
      },
      "geometry": {
        "type": "Point",
        "coordinates": [
          -22.192538603201594,
          65.07717893042191
        ]
      }
    },
    {
      "type": "Feature",
      "properties": {
        "norad_id": 35583,
        "name": "COSMOS 2251 DEB",
        "group": "cosmos-2251-debris",
        "lat": 37.38260733134141,
        "lon": 35.95604787379278,
        "alt_km": 1157.840493943032,
        "timestamp": "2025-12-02T10:50:47.672051+00:00",
        "meta_object_name": "COSMOS 2251 DEB",
        "meta_object_id": "1993-036AMA",
        "meta_epoch": "2025-12-01T09:18:45.701280",
        "meta_mean_motion": 13.55311164,
        "meta_eccentricity": 0.03859858,
        "meta_inclination": 73.9177,
        "meta_ra_of_asc_node": 230.413,
        "meta_arg_of_pericenter": 256.8414,
        "meta_mean_anomaly": 98.9367,
        "meta_ephemeris_type": 0,
        "meta_classification_type": "U",
        "meta_norad_cat_id": 35583,
        "meta_element_set_no": 999,
        "meta_rev_at_epoch": 82258,
        "meta_bstar": 0.00049161142,
        "meta_mean_motion_dot": 5.24e-06,
        "meta_mean_motion_ddot": 0,
        "tle_line1": "1 35583U 93036AMA 25335.38802895  .00000524  00000+0  49161-3 0  9990",
        "tle_line2": "2 35583  73.9177 230.4130 0385985 256.8414  98.9367 13.55311164822588"
      },
      "geometry": {
        "type": "Point",
        "coordinates": [
          35.95604787379278,
          37.38260733134141
        ]
      }
    }
  ]
}